$$SOE
2460714.500000000, A.D. 2025-Feb-08 00:00:00.0000, -5.435937106564238E+09, -1.228391572622578E+09, -6.708677569115932E+08,
2460721.500000000, A.D. 2025-Feb-15 00:00:00.0000, -5.435427397904669E+09, -1.231495711407684E+09, -6.713829971440898E+08,
2460728.500000000, A.D. 2025-Feb-22 00:00:00.0000, -5.434916204992880E+09, -1.234599601551327E+09, -6.718980522998714E+08,
2460735.500000000, A.D. 2025-Mar-01 00:00:00.0000, -5.434403525884613E+09, -1.237703241851347E+09, -6.724129224314566E+08,
2460742.500000000, A.D. 2025-Mar-08 00:00:00.0000, -5.433889357554198E+09, -1.240806631221403E+09, -6.729276077424343E+08,
2460749.500000000, A.D. 2025-Mar-15 00:00:00.0000, -5.433373695916775E+09, -1.243909766855466E+09, -6.734421084319347E+08,
2460756.500000000, A.D. 2025-Mar-22 00:00:00.0000, -5.432856538058701E+09, -1.247012643805261E+09, -6.739564244507141E+08,
2460763.500000000, A.D. 2025-Mar-29 00:00:00.0000, -5.432337883098615E+09, -1.250115256812397E+09, -6.744705555660195E+08,
2460770.500000000, A.D. 2025-Apr-05 00:00:00.0000, -5.431817731353929E+09, -1.253217601256784E+09, -6.749845015088747E+08,
2460777.500000000, A.D. 2025-Apr-12 00:00:00.0000, -5.431296083738708E+09, -1.256319673117126E+09, -6.754982620189345E+08,
2460784.500000000, A.D. 2025-Apr-19 00:00:00.0000, -5.430772941580115E+09, -1.259421468824555E+09, -6.760118368420532E+08,
2460791.500000000, A.D. 2025-Apr-26 00:00:00.0000, -5.430248306581774E+09, -1.262522985212115E+09, -6.765252257223365E+08,
2460798.500000000, A.D. 2025-May-03 00:00:00.0000, -5.429722180820370E+09, -1.265624219540528E+09, -6.770384283977593E+08,
2460805.500000000, A.D. 2025-May-10 00:00:00.0000, -5.429194566746897E+09, -1.268725169591229E+09, -6.775514446014475E+08,
2460812.500000000, A.D. 2025-May-17 00:00:00.0000, -5.428665467155833E+09, -1.271825833867373E+09, -6.780642740754757E+08,
2460819.500000000, A.D. 2025-May-24 00:00:00.0000, -5.428134884948296E+09, -1.274926211957013E+09, -6.785769166176775E+08,
2460826.500000000, A.D. 2025-May-31 00:00:00.0000, -5.427602822271431E+09, -1.278026304747196E+09, -6.790893721744268E+08,
2460833.500000000, A.D. 2025-Jun-07 00:00:00.0000, -5.427069279434960E+09, -1.281126113283989E+09, -6.796016408441739E+08,
2460840.500000000, A.D. 2025-Jun-14 00:00:00.0000, -5.426534255969450E+09, -1.284225636945059E+09, -6.801137226293535E+08,
2460847.500000000, A.D. 2025-Jun-21 00:00:00.0000, -5.425997752609524E+09, -1.287324874196008E+09, -6.806256173155882E+08,
2460854.500000000, A.D. 2025-Jun-28 00:00:00.0000, -5.425459771073831E+09, -1.290423824165594E+09, -6.811373246208586E+08,
2460861.500000000, A.D. 2025-Jul-05 00:00:00.0000, -5.424920313158494E+09, -1.293522486883215E+09, -6.816488442992499E+08,
2460868.500000000, A.D. 2025-Jul-12 00:00:00.0000, -5.424379380335028E+09, -1.296620862983847E+09, -6.821601761557930E+08,
2460875.500000000, A.D. 2025-Jul-19 00:00:00.0000, -5.423836973663154E+09, -1.299718953455341E+09, -6.826713200367119E+08,
2460882.500000000, A.D. 2025-Jul-26 00:00:00.0000, -5.423293093808605E+09, -1.302816759484522E+09, -6.831822758188772E+08,
2460889.500000000, A.D. 2025-Aug-02 00:00:00.0000, -5.422747741100502E+09, -1.305914282380260E+09, -6.836930434025732E+08,
2460896.500000000, A.D. 2025-Aug-09 00:00:00.0000, -5.422200915604914E+09, -1.309011523587934E+09, -6.842036227107921E+08,
2460903.500000000, A.D. 2025-Aug-16 00:00:00.0000, -5.421652617137625E+09, -1.312108484858229E+09, -6.847140137070947E+08,
2460910.500000000, A.D. 2025-Aug-23 00:00:00.0000, -5.421102844923520E+09, -1.315205168553525E+09, -6.852242164573280E+08,
2460917.500000000, A.D. 2025-Aug-30 00:00:00.0000, -5.420551596573629E+09, -1.318301577377578E+09, -6.857342312067815E+08,
2460924.500000000, A.D. 2025-Sep-06 00:00:00.0000, -5.419998867797953E+09, -1.321397712528049E+09, -6.862440582607170E+08,
2460931.500000000, A.D. 2025-Sep-13 00:00:00.0000, -5.419444654524843E+09, -1.324493572754582E+09, -6.867536977176797E+08,
2460938.500000000, A.D. 2025-Sep-20 00:00:00.0000, -5.418888954153707E+09, -1.327589155966722E+09, -6.872631494899530E+08,
2460945.500000000, A.D. 2025-Sep-27 00:00:00.0000, -5.418331764882451E+09, -1.330684460279924E+09, -6.877724134537427E+08,
2460952.500000000, A.D. 2025-Oct-04 00:00:00.0000, -5.417773085126418E+09, -1.333779483960260E+09, -6.882814894998801E+08,
2460959.500000000, A.D. 2025-Oct-11 00:00:00.0000, -5.417212913402409E+09, -1.336874225210640E+09, -6.887903775277227E+08,
2460966.500000000, A.D. 2025-Oct-18 00:00:00.0000, -5.416651248394163E+09, -1.339968682072690E+09, -6.892990774306686E+08,
2460973.500000000, A.D. 2025-Oct-25 00:00:00.0000, -5.416088089059758E+09, -1.343062852432966E+09, -6.898075890852053E+08,
2460980.500000000, A.D. 2025-Nov-01 00:00:00.0000, -5.415523434741516E+09, -1.346156734117601E+09, -6.903159123459511E+08,
2460987.500000000, A.D. 2025-Nov-08 00:00:00.0000, -5.414957285243910E+09, -1.349250325106353E+09, -6.908240470525808E+08,
2460994.500000000, A.D. 2025-Nov-15 00:00:00.0000, -5.414389640731668E+09, -1.352343623924137E+09, -6.913319930671781E+08,
2461001.500000000, A.D. 2025-Nov-22 00:00:00.0000, -5.413820501045433E+09, -1.355436629989482E+09, -6.918397503611753E+08,
2461008.500000000, A.D. 2025-Nov-29 00:00:00.0000, -5.413249864588241E+09, -1.358529342784490E+09, -6.923473190452931E+08,
2461015.500000000, A.D. 2025-Dec-06 00:00:00.0000, -5.412677729060305E+09, -1.361621759981889E+09, -6.928546991449020E+08,
2461022.500000000, A.D. 2025-Dec-13 00:00:00.0000, -5.412104093608489E+09, -1.364713877899191E+09, -6.933618904361805E+08,
2461029.500000000, A.D. 2025-Dec-20 00:00:00.0000, -5.411528958897291E+09, -1.367805693256399E+09, -6.938688925799656E+08,
2461036.500000000, A.D. 2025-Dec-27 00:00:00.0000, -5.410952326175191E+09, -1.370897203645572E+09, -6.943757052431110E+08,
2461043.500000000, A.D. 2026-Jan-03 00:00:00.0000, -5.410374196795568E+09, -1.373988407327222E+09, -6.948823281238320E+08,
2461050.500000000, A.D. 2026-Jan-10 00:00:00.0000, -5.409794572082415E+09, -1.377079303031789E+09, -6.953887609465634E+08,
2461057.500000000, A.D. 2026-Jan-17 00:00:00.0000, -5.409213453308318E+09, -1.380169889856923E+09, -6.958950034550686E+08,
2461064.500000000, A.D. 2026-Jan-24 00:00:00.0000, -5.408630841706724E+09, -1.383260167237041E+09, -6.964010554090075E+08,
2461071.500000000, A.D. 2026-Jan-31 00:00:00.0000, -5.408046738495076E+09, -1.386350134991629E+09, -6.969069165866138E+08,
2461078.500000000, A.D. 2026-Feb-07 00:00:00.0000, -5.407461144847272E+09, -1.389439793508701E+09, -6.974125868036978E+08,
2461085.500000000, A.D. 2026-Feb-14 00:00:00.0000, -5.406874061562395E+09, -1.392529144077842E+09, -6.979180659733261E+08,
2461092.500000000, A.D. 2026-Feb-21 00:00:00.0000, -5.406285488042175E+09, -1.395618188795009E+09, -6.984233541944652E+08,
2461099.500000000, A.D. 2026-Feb-28 00:00:00.0000, -5.405695421661998E+09, -1.398706928884982E+09, -6.989284516757314E+08,
2461106.500000000, A.D. 2026-Mar-07 00:00:00.0000, -5.405103859594007E+09, -1.401795363391114E+09, -6.994333584647114E+08,
2461113.500000000, A.D. 2026-Mar-14 00:00:00.0000, -5.404510800306609E+09, -1.404883490564933E+09, -6.999380744280005E+08,
2461120.500000000, A.D. 2026-Mar-21 00:00:00.0000, -5.403916242957503E+09, -1.407971309057566E+09, -7.004425994085363E+08,
2461127.500000000, A.D. 2026-Mar-28 00:00:00.0000, -5.403320186689582E+09, -1.411058817884275E+09, -7.009469332917558E+08,
2461134.500000000, A.D. 2026-Apr-04 00:00:00.0000, -5.402722630433503E+09, -1.414146016127769E+09, -7.014510760039446E+08,
2461141.500000000, A.D. 2026-Apr-11 00:00:00.0000, -5.402123572942934E+09, -1.417232902740244E+09, -7.019550274971535E+08,
2461148.500000000, A.D. 2026-Apr-18 00:00:00.0000, -5.401523012903120E+09, -1.420319476450864E+09, -7.024587877356182E+08,
2461155.500000000, A.D. 2026-Apr-25 00:00:00.0000, -5.400920949066663E+09, -1.423405735764002E+09, -7.029623566865021E+08,
2461162.500000000, A.D. 2026-May-02 00:00:00.0000, -5.400317380385538E+09, -1.426491679077841E+09, -7.034657343199891E+08,
2461169.500000000, A.D. 2026-May-09 00:00:00.0000, -5.399712306014320E+09, -1.429577304989588E+09, -7.039689206354097E+08,
2461176.500000000, A.D. 2026-May-16 00:00:00.0000, -5.399105724806315E+09, -1.432662612648907E+09, -7.044719157366335E+08,
2461183.500000000, A.D. 2026-May-23 00:00:00.0000, -5.398497634250485E+09, -1.435747601137181E+09, -7.049747198778534E+08,
2461190.500000000, A.D. 2026-May-30 00:00:00.0000, -5.397888030927391E+09, -1.438832267553010E+09, -7.054773332630172E+08,
2461197.500000000, A.D. 2026-Jun-06 00:00:00.0000, -5.397276912801355E+09, -1.441916607077468E+09, -7.059797558373847E+08,
2461204.500000000, A.D. 2026-Jun-13 00:00:00.0000, -5.396664279682859E+09, -1.445000614820179E+09, -7.064819873913307E+08,
2461211.500000000, A.D. 2026-Jun-20 00:00:00.0000, -5.396050132362154E+09, -1.448084286520046E+09, -7.069840276915123E+08,
2461218.500000000, A.D. 2026-Jun-27 00:00:00.0000, -5.395434472112453E+09, -1.451167618440473E+09, -7.074858765116392E+08,
2461225.500000000, A.D. 2026-Jul-04 00:00:00.0000, -5.394817300562840E+09, -1.454250607233934E+09, -7.079875336264544E+08,
2461232.500000000, A.D. 2026-Jul-11 00:00:00.0000, -5.394198619686957E+09, -1.457333249907753E+09, -7.084889988032610E+08,
2461239.500000000, A.D. 2026-Jul-18 00:00:00.0000, -5.393578431814767E+09, -1.460415543865289E+09, -7.089902717976606E+08,
2461246.500000000, A.D. 2026-Jul-25 00:00:00.0000, -5.392956739642982E+09, -1.463497487019753E+09, -7.094913523557609E+08,
2461253.500000000, A.D. 2026-Aug-01 00:00:00.0000, -5.392333546196074E+09, -1.466579078028688E+09, -7.099922402313793E+08,
2461260.500000000, A.D. 2026-Aug-08 00:00:00.0000, -5.391708854523031E+09, -1.469660316684944E+09, -7.104929352410386E+08,
2461267.500000000, A.D. 2026-Aug-15 00:00:00.0000, -5.391082666714900E+09, -1.472741204013585E+09, -7.109934373581012E+08,
2461274.500000000, A.D. 2026-Aug-22 00:00:00.0000, -5.390454983004259E+09, -1.475821740853348E+09, -7.114937466764987E+08,
$$EOE